IRIDIUM 39              
1 25042U 97069D   25175.51684336  .00000388  00000+0  96502-4 0  9994
2 25042  86.3925 207.9903 0015519 284.4663  75.4819 14.49226107450281
IRIDIUM 38              
1 25043U 97069E   25174.98767266  .00000249  00000+0  75775-4 0  9994
2 25043  86.3960 230.2945 0004227  85.3016 274.8665 14.38121979447199
IRIDIUM 42              
1 25077U 97077A   25175.55954458  .00000308  00000+0  98417-4 0  9999
2 25077  86.3962 236.2326 0003090  92.7325 267.4226 14.36357164442257
IRIDIUM 44              
1 25078U 97077B   25175.56357100  .00000266  00000+0  77825-4 0  9995
2 25078  86.3968 218.1391 0003072  53.9112 306.2371 14.40246652444796
IRIDIUM 45              
1 25104U 97082A   25174.89158624  .00008285  00000+0  29596-3 0  9996
2 25104  86.3585  44.6386 0114018 307.3800  51.7103 15.22595455453064
IRIDIUM 24              
1 25105U 97082B   25175.18028613  .00000349  00000+0  10014-3 0  9992
2 25105  86.3899  77.3354 0013402  59.9660 300.2868 14.42104412444475
IRIDIUM 51              
1 25262U 98018A   25174.91910792  .00019037  00000+0  41867-3 0  9998
2 25262  86.3835  52.5000 0083845 222.9200 136.5493 15.40092753448068
IRIDIUM 57              
1 25273U 98019B   25174.65287006  .00000230  00000+0  72637-4 0  9992
2 25273  86.3976 142.5537 0002368  86.7073 273.4395 14.35896792425713
